CCSDS_OEM_VERS = 2.0  
CREATION_DATE  = 2026-05-08T15:37:27
ORIGINATOR     = ESOC/OPS-GFA                            
 
 



META_START
OBJECT_NAME          = LISA                                    
OBJECT_ID            = -1000                                   
CENTER_NAME          = SUN                     
REF_FRAME            = EME2000 
TIME_SYSTEM          = TCB
START_TIME           = 2036-12-23T00:00:30.346418            
STOP_TIME            = 2047-09-08T09:05:06.374890            
INTERPOLATION        = HERMITE                                 
INTERPOLATION_DEGREE = 7                                       
META_STOP

2044-03-04T23:46:30.724953    -1.17713027335755065e+08    8.54545449803099036e+07    3.80593030106660947e+07   -1.85285210248175360e+01   -2.13105189426529300e+01   -9.05634754214031190e+00    4.59582378186375495e-06   -3.33642605186309322e-06   -1.48596028092477380e-06
2044-03-05T19:59:39.849292    -1.19049481497122571e+08    8.38945864151099622e+07    3.73961858931228295e+07   -1.81921148507848862e+01   -2.15511444051304473e+01   -9.16356104033089025e+00    4.64732499637603943e-06   -3.27504166007464765e-06   -1.45985667316022756e-06
2044-03-06T16:12:48.973631    -1.20361313421992078e+08    8.23172761450004876e+07    3.67253342172432095e+07   -1.78519950240164853e+01   -2.17872779445270837e+01   -9.26886385600388607e+00    4.69786085152609462e-06   -3.21300525345899729e-06   -1.43346206313877369e-06
2044-03-07T12:25:58.097970    -1.21648255362446740e+08    8.07229428505967706e+07    3.60468878266704902e+07   -1.75082321596309001e+01   -2.20188725659867721e+01   -9.37223500534070197e+00    4.74742183378631123e-06   -3.15032961957647296e-06   -1.40678189886956551e-06
2044-03-08T08:39:07.222309    -1.22910044704235747e+08    7.91119185893069953e+07    3.53609880733813122e+07   -1.71608975580341756e+01   -2.22458822093387276e+01   -9.47365390281536790e+00    4.79599862572024302e-06   -3.08702765130947310e-06   -1.37982167539079969e-06
2044-03-09T04:52:16.346649    -1.24146424022325158e+08    7.74845387286230177e+07    3.46677777893186063e+07   -1.68100631910427403e+01   -2.24682617563871005e+01   -9.57310036445066537e+00    4.84358209438060000e-06   -3.02311233603626802e-06   -1.35258692996758299e-06
2044-03-10T01:05:25.470987    -1.25357141153543189e+08    7.58411418844062388e+07    3.39674012603401020e+07   -1.64558016890024739e+01   -2.26859670373123450e+01   -9.67055461068029310e+00    4.89016327555670147e-06   -2.95859674206129742e-06   -1.32508323607503483e-06
2044-03-10T21:18:34.595326    -1.26541949291579977e+08    7.41820698658027798e+07    3.32600042032364011e+07   -1.60981863292105771e+01   -2.28989548359803159e+01   -9.76599726872684215e+00    4.93573335375050274e-06   -2.89349400219429492e-06   -1.29731619611946165e-06
2044-03-11T17:31:43.719665    -1.27700607109601662e+08    7.25076676284198165e+07    3.25457337465718538e+07   -1.57372910259468952e+01   -2.31071828939555211e+01   -9.85940937440537724e+00    4.98028363791702860e-06   -2.82781729450937269e-06   -1.26929143291100205e-06
2044-03-12T13:51:57.389015    -1.28839404777906105e+08    7.08083865115196556e+07    3.18205137188812718e+07   -1.53710574185012909e+01   -2.33117822589451116e+01   -9.95129921058898326e+00    5.02405693563509096e-06   -2.76119229351864232e-06   -1.24084911475601556e-06
2044-03-13T10:12:11.058364    -1.29951272772536978e+08    6.90943049903027713e+07    3.10886425542882085e+07   -1.50016573363585692e+01   -2.35114834224402323e+01   -1.00410975268200815e+01    5.06678184447032957e-06   -2.69401393798862298e-06   -1.21215773057218557e-06
2044-03-14T06:32:24.727713    -1.31035982113808066e+08    6.73657831499495953e+07    3.03502740428381078e+07   -1.46291678295504628e+01   -2.37062463774279983e+01   -1.01287863043533797e+01    5.10845036555064313e-06   -2.62629606439341660e-06   -1.18322319394283652e-06
2044-03-15T02:52:38.397062    -1.32093309420550689e+08    6.56231839633930102e+07    2.96055632755163833e+07   -1.42536665284240858e+01   -2.38960321324599825e+01   -1.02143479585601593e+01    5.14905464993852319e-06   -2.55805258001896639e-06   -1.15405145078990455e-06
2044-03-15T23:12:52.066411    -1.33123037007452339e+08    6.38668732212464362e+07    2.88546666148322262e+07   -1.38752316316776678e+01   -2.40808027170827863e+01   -1.02977653414143209e+01    5.18858702468115691e-06   -2.48929746931030127e-06   -1.12464848243410089e-06
2044-03-16T19:33:05.735761    -1.34124952955070838e+08    6.20972194591063559e+07    2.80977416640073210e+07   -1.34939418926733961e+01   -2.42605211876615598e+01   -1.03790217441690604e+01    5.22704001391257496e-06   -2.42004479831914867e-06   -1.09502030776906692e-06
2044-03-17T15:53:19.405110    -1.35098851158275306e+08    6.03145938826954067e+07    2.73349472350251712e+07   -1.31098766043862209e+01   -2.44351516334596326e+01   -1.04581009001603089e+01    5.26440635501491987e-06   -2.35030871725400944e-06   -1.06517298455051617e-06
2044-03-18T12:13:33.074459    -1.36044531358852327e+08    5.85193702913267240e+07    2.65664433158030026e+07   -1.27231155833506300e+01   -2.46046591828352419e+01   -1.05349869876720792e+01    5.30067900982774548e-06   -2.28010346112702757e-06   -1.03511260979785522e-06
2044-03-19T08:33:46.743808    -1.36961799168016225e+08    5.67119250001702160e+07    2.57923910367482454e+07   -1.23337391529674125e+01   -2.47690100094162453e+01   -1.06096646327988751e+01    5.33585117092515112e-06   -2.20944334850768708e-06   -1.00484531931270896e-06
2044-03-20T04:54:00.413157    -1.37850466084561825e+08    5.48926367618016154e+07    2.50129526369615570e+07   -1.19418281265324033e+01   -2.49281713381137848e+01   -1.06821189122402949e+01    5.36991626292840057e-06   -2.13834277836715690e-06   -9.74377286307173874e-07
2044-03-21T01:14:14.082507    -1.38710349514398277e+08    5.30618866875149533e+07    2.42282914303484149e+07   -1.15474637903492550e+01   -2.50821114508358072e+01   -1.07523353559629502e+01    5.40286793889961498e-06   -2.06681622503505715e-06   -9.43714719151536620e-07
2044-03-21T21:34:27.751856    -1.39541272797202945e+08    5.12200581688791737e+07    2.34385717719011307e+07   -1.11507278872882054e+01   -2.52307996917613728e+01   -1.08202999496648999e+01    5.43470007177747352e-06   -1.99487823125257556e-06   -9.12863858234209959e-07
2044-03-22T17:54:41.421205    -1.40343065245933294e+08    4.93675368000198752e+07    2.26439590244135037e+07   -1.07517026011529069e+01   -2.53742064720367431e+01   -1.08859991369776683e+01    5.46540674084070191e-06   -1.92254339930841889e-06   -8.81830971927827586e-07
2044-03-23T14:14:55.090554    -1.41115562204936206e+08    4.75047103011066169e+07    2.18446195258897953e+07   -1.03504705422172663e+01   -2.55123032737540605e+01   -1.09494198213410368e+01    5.49498221330118339e-06   -1.84982638031639691e-06   -8.50622351688019804e-07
2044-03-24T10:35:08.759903    -1.41858605132392585e+08    4.56319684435263723e+07    2.10407205579102412e+07   -9.94711473429440218e+00   -2.56450626530737011e+01   -1.10105493674857531e+01    5.52342092088340878e-06   -1.77674186155664738e-06   -8.19244306249665527e-07
2044-03-25T06:55:22.429253    -1.42572041712836325e+08    4.37497029772249758e+07    2.02324303152151257e+07   -9.54171860369963554e+00   -2.57724582423510995e+01   -1.10693756024592496e+01    5.55071743143203962e-06   -1.70330455190205573e-06   -7.87703154930320425e-07
2044-03-26T03:15:18.434113    -1.43255564333924174e+08    4.18587649635786042e+07    1.94201144027451351e+07   -9.13446446136941148e+00   -2.58944359750738187e+01   -1.11258734656797618e+01    5.57686091506671709e-06   -1.62954728903659409e-06   -7.56013015828562689e-07
2044-03-26T23:35:14.438974    -1.43909208588320613e+08    3.99590965438941568e+07    1.86037481014432907e+07   -8.72533883241988306e+00   -2.60110030638593877e+01   -1.11800462000873431e+01    5.60185297285263753e-06   -1.55546716642368406e-06   -7.24172646897889304e-07
2044-03-27T19:55:10.443835    -1.44532840610137254e+08    3.80510945997259915e+07    1.77835019951828681e+07   -8.31442616280682500e+00   -2.61221364232295841e+01   -1.12318830446142712e+01    5.62568908819446309e-06   -1.48107912394999835e-06   -6.92188476125829428e-07
2044-03-28T16:15:06.448697    -1.45126332664351493e+08    3.61351576715137064e+07    1.69595474416705295e+07   -7.90181122339925501e+00   -2.62278140625205793e+01   -1.12813737092958029e+01    5.64836490444015194e-06   -1.40639813684043118e-06   -6.60066948168970368e-07
2044-03-29T12:35:02.453558    -1.45689563224161863e+08    3.42116858712620214e+07    1.61320565353450570e+07   -7.48757909732963256e+00   -2.63280150885637916e+01   -1.13285083765416186e+01    5.66987624972087104e-06   -1.33143921803162634e-06   -6.27814525659464500e-07
2044-03-30T08:54:58.458419    -1.46222417021557838e+08    3.22810807983255275e+07    1.53012020713745784e+07   -7.07181516570843538e+00   -2.64227197085037773e+01   -1.13732777024852094e+01    5.69021915690421253e-06   -1.25621741958470569e-06   -5.95437690046929200e-07
2044-03-31T05:14:54.463280    -1.46724785076726317e+08    3.03437454575554356e+07    1.44671575104822833e+07   -6.65460509205678719e+00   -2.65119092326844346e+01   -1.14156728183778888e+01    5.70938987866905168e-06   -1.18074783313765065e-06   -5.62942941975995366e-07
2044-04-01T01:34:50.468141    -1.47196564711909533e+08    2.84000841790827736e+07    1.36300969443377852e+07   -6.23603480581443304e+00   -2.65955660775330749e+01   -1.14556853319934273e+01    5.72738489769497122e-06   -1.10504558939598737e-06   -5.30336801198872231e-07
2044-04-01T21:54:46.473002    -1.47637659555327177e+08    2.64505025390126780e+07    1.27901950612513013e+07   -5.81619048528042626e+00   -2.66736737683721117e+01   -1.14933073290092995e+01    5.74420093197679594e-06   -1.02912585666382545e-06   -4.97625806023895352e-07
